ONEWEB-0634             
1 56075U 23043AF  25349.31833537  .00000219  00000+0  54785-3 0  9994
2 56075  87.8997 295.9225 0001510  74.2077 285.9219 13.15549955132224
ONEWEB-0635             
1 56076U 23043AG  25349.31356473 -.00000114  00000+0 -33700-3 0  9994
2 56076  87.8996 295.8774 0001996  84.5836 275.5522 13.15548061132259
ONEWEB-0636             
1 56077U 23043AH  25349.30564660 -.00000074  00000+0 -23055-3 0  9990
2 56077  87.8990 295.8966 0002002  84.3695 275.7664 13.15547552132238
ONEWEB-0637             
1 56078U 23043AJ  25349.29931331  .00000260  00000+0  65626-3 0  9997
2 56078  87.8995 295.9140 0001633  85.3581 274.7736 13.15550873132254
ONEWEB-0647             
1 56079U 23043AK  25349.29457031  .00000231  00000+0  57821-3 0  9994
2 56079  87.8989 295.9282 0001980  79.2521 280.8832 13.15549782132247
ONEWEB-0651             
1 56080U 23043AL  25349.28979790  .00000204  00000+0  50736-3 0  9994
2 56080  87.8995 295.9225 0001850  86.8996 273.2346 13.15551155133445
ONEWEB-0718             
1 56081U 23043AM  25349.36112346 -.00000001  00000+0 -36559-4 0  9995
2 56081  87.8993 295.8887 0001325  67.9461 292.1810 13.15548947132261
ONEWEB-0561             
1 56710U 23068A   25349.33603790  .00000128  00000+0  28332-3 0  9993
2 56710  87.9198 311.1161 0002279  87.0189 273.1205 13.20769560125232
